{
  "type": "FeatureCollection",
  "features": [
    {
      "type": "Feature",
      "properties": {
        "norad_id": 47116,
        "name": "COSMOS 2251 DEB",
        "group": "cosmos-2251-debris",
        "lat": 54.329853207645776,
        "lon": -109.04935536597198,
        "alt_km": 567.9993416008356,
        "timestamp": "2025-12-19T06:59:44.305455+00:00",
        "meta_object_name": "COSMOS 2251 DEB",
        "meta_object_id": "1993-036BYJ",
        "meta_epoch": "2025-12-17T22:44:25.492992",
        "meta_mean_motion": 14.98433598,
        "meta_eccentricity": 0.00213127,
        "meta_inclination": 74.0233,
        "meta_ra_of_asc_node": 230.1515,
        "meta_arg_of_pericenter": 323.4041,
        "meta_mean_anomaly": 47.2172,
        "meta_ephemeris_type": 0,
        "meta_classification_type": "U",
        "meta_norad_cat_id": 47116,
        "meta_element_set_no": 999,
        "meta_rev_at_epoch": 59589,
        "meta_bstar": 0.0014083931,
        "meta_mean_motion_dot": 0.000169,
        "meta_mean_motion_ddot": 0,
        "tle_line1": "1 47116U 93036BYJ 25351.94751728  .00016900  00000+0  14084-2 0  9993",
        "tle_line2": "2 47116  74.0233 230.1515 0021312 323.4041  47.2172 14.98433598595896"
      },
      "geometry": {
        "type": "Point",
        "coordinates": [
          -109.04935536597198,
          54.329853207645776
        ]
      }
    },
    {
      "type": "Feature",
      "properties": {
        "norad_id": 53093,
        "name": "COSMOS 2251 DEB",
        "group": "cosmos-2251-debris",
        "lat": -8.415818954873666,
        "lon": -73.11587962242044,
        "alt_km": 742.273407517906,
        "timestamp": "2025-12-19T06:59:44.305467+00:00",
        "meta_object_name": "COSMOS 2251 DEB",
        "meta_object_id": "1993-036BYP",
        "meta_epoch": "2025-12-18T22:42:37.276992",
        "meta_mean_motion": 14.4191261,
        "meta_eccentricity": 0.00195811,
        "meta_inclination": 74.0368,
        "meta_ra_of_asc_node": 289.9508,
        "meta_arg_of_pericenter": 6.0088,
        "meta_mean_anomaly": 354.1299,
        "meta_ephemeris_type": 0,
        "meta_classification_type": "U",
        "meta_norad_cat_id": 53093,
        "meta_element_set_no": 999,
        "meta_rev_at_epoch": 17815,
        "meta_bstar": 0.00062263644,
        "meta_mean_motion_dot": 2.018e-05,
        "meta_mean_motion_ddot": 0,
        "tle_line1": "1 53093U 93036BYP 25352.94626478  .00002018  00000+0  62264-3 0  9997",
        "tle_line2": "2 53093  74.0368 289.9508 0019581   6.0088 354.1299 14.41912610178151"
      },
      "geometry": {
        "type": "Point",
        "coordinates": [
          -73.11587962242044,
          -8.415818954873666
        ]
      }
    }
  ]
}